STARLINK-33990          
1 63840U 25093E   25217.46304019  .00016198  00000+0  59660-3 0  9997
2 63840  43.0002 218.9771 0001476 271.9831  88.0852 15.27592776 14687
STARLINK-34056          
1 63841U 25093F   25217.28615766  .00024924  00000+0  91148-3 0  9995
2 63841  42.9997 220.2379 0001135 273.2072  86.8650 15.27605587 14657
STARLINK-34026          
1 63842U 25093G   25217.28744274  .00029721  00000+0  10849-2 0  9991
2 63842  43.0003 220.2497 0001455 273.7644  86.3042 15.27589334 14655
STARLINK-33777          
1 63843U 25093H   25217.31556263  .00015497  00000+0  57131-3 0  9996
2 63843  43.0023 219.6014 0002350 255.8902 104.1689 15.27589406 14889
STARLINK-34041          
1 63844U 25093J   25217.42335413  .00028744  00000+0  10494-2 0  9990
2 63844  42.9991 219.5514 0001778 270.9891  89.0757 15.27597660 14893
STARLINK-34011          
1 63845U 25093K   25217.49645017  .00024964  00000+0  91300-3 0  9998
2 63845  43.0002 219.2457 0001314 267.7482  92.3219 15.27603090 14680
STARLINK-34044          
1 63846U 25093L   25217.31685148  .00022539  00000+0  82583-3 0  9998
2 63846  42.9997 219.6146 0001428 263.4036  96.6654 15.27589144 14666
STARLINK-34037          
1 63847U 25093M   25217.06558600  .00022946  00000+0  84047-3 0  9992
2 63847  42.9996 221.1645 0001151 264.1441  95.9279 15.27591180 14847
STARLINK-34010          
1 63848U 25093N   25217.39893824  .00022845  00000+0  83672-3 0  9990
2 63848  43.0016 219.3643 0001772 274.3150  85.7499 15.27596114 14673
STARLINK-34009          
1 63849U 25093P   25217.35331023  .00021027  00000+0  77089-3 0  9991
2 63849  42.9977 216.4180 0001646 272.9139  87.1524 15.27602792 14926
STARLINK-33958          
1 63850U 25093Q   25217.42463952  .00018611  00000+0  68359-3 0  9993
2 63850  43.0022 219.5626 0001146 267.5540  92.5180 15.27605705 14735
STARLINK-33776          
1 63851U 25093R   25217.05915838  .00016281  00000+0  59967-3 0  9994
2 63851  42.9987 221.1148 0000919 259.6762 100.3986 15.27590335 14832
STARLINK-34032          
1 63853U 25093T   25217.06172463  .00017863  00000+0  65711-3 0  9997
2 63853  42.9986 221.1159 0000927 250.2843 109.7909 15.27577838 14843
STARLINK-34015          
1 63854U 25093U   25217.36182149  .00026032  00000+0  95134-3 0  9993
2 63854  42.9976 219.9292 0001259 270.0530  90.0177 15.27608853 14726
STARLINK-33969          
1 63855U 25093V   25217.46175376  .00020039  00000+0  73516-3 0  9990
2 63855  42.9988 218.9565 0000586 262.4134  97.6651 15.27605658 14673
STARLINK-34002          
1 63856U 25093W   25217.27459202  .00021002  00000+0  77036-3 0  9995
2 63856  43.0018 220.1335 0002704 285.3693  74.6860 15.27586272 14653
