[{"OBJECT_NAME":"STARLINK-33990","OBJECT_ID":"2025-093E","EPOCH":"2025-08-05T11:06:46.672416","MEAN_MOTION":15.27592776,"ECCENTRICITY":0.0001476,"INCLINATION":43.0002,"RA_OF_ASC_NODE":218.9771,"ARG_OF_PERICENTER":271.9831,"MEAN_ANOMALY":88.0852,"EPHEMERIS_TYPE":0,"CLASSIFICATION_TYPE":"U","NORAD_CAT_ID":63840,"ELEMENT_SET_NO":999,"REV_AT_EPOCH":1468,"BSTAR":0.0005966,"MEAN_MOTION_DOT":0.00016198,"MEAN_MOTION_DDOT":0},{"OBJECT_NAME":"STARLINK-34056","OBJECT_ID":"2025-093F","EPOCH":"2025-08-05T06:52:04.021824","MEAN_MOTION":15.27605587,"ECCENTRICITY":0.0001135,"INCLINATION":42.9997,"RA_OF_ASC_NODE":220.2379,"ARG_OF_PERICENTER":273.2072,"MEAN_ANOMALY":86.865,"EPHEMERIS_TYPE":0,"CLASSIFICATION_TYPE":"U","NORAD_CAT_ID":63841,"ELEMENT_SET_NO":999,"REV_AT_EPOCH":1465,"BSTAR":0.00091148,"MEAN_MOTION_DOT":0.00024924,"MEAN_MOTION_DDOT":0},{"OBJECT_NAME":"STARLINK-34026","OBJECT_ID":"2025-093G","EPOCH":"2025-08-05T06:53:55.052736","MEAN_MOTION":15.27589334,"ECCENTRICITY":0.0001455,"INCLINATION":43.0003,"RA_OF_ASC_NODE":220.2497,"ARG_OF_PERICENTER":273.7644,"MEAN_ANOMALY":86.3042,"EPHEMERIS_TYPE":0,"CLASSIFICATION_TYPE":"U","NORAD_CAT_ID":63842,"ELEMENT_SET_NO":999,"REV_AT_EPOCH":1465,"BSTAR":0.0010849,"MEAN_MOTION_DOT":0.00029721,"MEAN_MOTION_DDOT":0},{"OBJECT_NAME":"STARLINK-33777","OBJECT_ID":"2025-093H","EPOCH":"2025-08-05T07:34:24.611232","MEAN_MOTION":15.27589406,"ECCENTRICITY":0.000235,"INCLINATION":43.0023,"RA_OF_ASC_NODE":219.6014,"ARG_OF_PERICENTER":255.8902,"MEAN_ANOMALY":104.1689,"EPHEMERIS_TYPE":0,"CLASSIFICATION_TYPE":"U","NORAD_CAT_ID":63843,"ELEMENT_SET_NO":999,"REV_AT_EPOCH":1488,"BSTAR":0.00057131,"MEAN_MOTION_DOT":0.00015497,"MEAN_MOTION_DDOT":0},{"OBJECT_NAME":"STARLINK-34041","OBJECT_ID":"2025-093J","EPOCH":"2025-08-05T10:09:37.796832","MEAN_MOTION":15.2759766,"ECCENTRICITY":0.0001778,"INCLINATION":42.9991,"RA_OF_ASC_NODE":219.5514,"ARG_OF_PERICENTER":270.9891,"MEAN_ANOMALY":89.0757,"EPHEMERIS_TYPE":0,"CLASSIFICATION_TYPE":"U","NORAD_CAT_ID":63844,"ELEMENT_SET_NO":999,"REV_AT_EPOCH":1489,"BSTAR":0.0010494,"MEAN_MOTION_DOT":0.00028744,"MEAN_MOTION_DDOT":0},{"OBJECT_NAME":"STARLINK-34011","OBJECT_ID":"2025-093K","EPOCH":"2025-08-05T11:54:53.294688","MEAN_MOTION":15.2760309,"ECCENTRICITY":0.0001314,"INCLINATION":43.0002,"RA_OF_ASC_NODE":219.2457,"ARG_OF_PERICENTER":267.7482,"MEAN_ANOMALY":92.3219,"EPHEMERIS_TYPE":0,"CLASSIFICATION_TYPE":"U","NORAD_CAT_ID":63845,"ELEMENT_SET_NO":999,"REV_AT_EPOCH":1468,"BSTAR":0.000913,"MEAN_MOTION_DOT":0.00024964,"MEAN_MOTION_DDOT":0},{"OBJECT_NAME":"STARLINK-34044","OBJECT_ID":"2025-093L","EPOCH":"2025-08-05T07:36:15.967872","MEAN_MOTION":15.27589144,"ECCENTRICITY":0.0001428,"INCLINATION":42.9997,"RA_OF_ASC_NODE":219.6146,"ARG_OF_PERICENTER":263.4036,"MEAN_ANOMALY":96.6654,"EPHEMERIS_TYPE":0,"CLASSIFICATION_TYPE":"U","NORAD_CAT_ID":63846,"ELEMENT_SET_NO":999,"REV_AT_EPOCH":1466,"BSTAR":0.00082583,"MEAN_MOTION_DOT":0.00022539,"MEAN_MOTION_DDOT":0},{"OBJECT_NAME":"STARLINK-34037","OBJECT_ID":"2025-093M","EPOCH":"2025-08-05T01:34:26.630400","MEAN_MOTION":15.2759118,"ECCENTRICITY":0.0001151,"INCLINATION":42.9996,"RA_OF_ASC_NODE":221.1645,"ARG_OF_PERICENTER":264.1441,"MEAN_ANOMALY":95.9279,"EPHEMERIS_TYPE":0,"CLASSIFICATION_TYPE":"U","NORAD_CAT_ID":63847,"ELEMENT_SET_NO":999,"REV_AT_EPOCH":1484,"BSTAR":0.00084047,"MEAN_MOTION_DOT":0.00022946,"MEAN_MOTION_DDOT":0},{"OBJECT_NAME":"STARLINK-34010","OBJECT_ID":"2025-093N","EPOCH":"2025-08-05T09:34:28.263936","MEAN_MOTION":15.27596114,"ECCENTRICITY":0.0001772,"INCLINATION":43.0016,"RA_OF_ASC_NODE":219.3643,"ARG_OF_PERICENTER":274.315,"MEAN_ANOMALY":85.7499,"EPHEMERIS_TYPE":0,"CLASSIFICATION_TYPE":"U","NORAD_CAT_ID":63848,"ELEMENT_SET_NO":999,"REV_AT_EPOCH":1467,"BSTAR":0.00083672,"MEAN_MOTION_DOT":0.00022845,"MEAN_MOTION_DDOT":0},{"OBJECT_NAME":"STARLINK-34009","OBJECT_ID":"2025-093P","EPOCH":"2025-08-05T08:28:46.003872","MEAN_MOTION":15.27602792,"ECCENTRICITY":0.0001646,"INCLINATION":42.9977,"RA_OF_ASC_NODE":216.418,"ARG_OF_PERICENTER":272.9139,"MEAN_ANOMALY":87.1524,"EPHEMERIS_TYPE":0,"CLASSIFICATION_TYPE":"U","NORAD_CAT_ID":63849,"ELEMENT_SET_NO":999,"REV_AT_EPOCH":1492,"BSTAR":0.00077089,"MEAN_MOTION_DOT":0.00021027,"MEAN_MOTION_DDOT":0},{"OBJECT_NAME":"STARLINK-33958","OBJECT_ID":"2025-093Q","EPOCH":"2025-08-05T10:11:28.854528","MEAN_MOTION":15.27605705,"ECCENTRICITY":0.0001146,"INCLINATION":43.0022,"RA_OF_ASC_NODE":219.5626,"ARG_OF_PERICENTER":267.554,"MEAN_ANOMALY":92.518,"EPHEMERIS_TYPE":0,"CLASSIFICATION_TYPE":"U","NORAD_CAT_ID":63850,"ELEMENT_SET_NO":999,"REV_AT_EPOCH":1473,"BSTAR":0.00068359,"MEAN_MOTION_DOT":0.00018611,"MEAN_MOTION_DDOT":0},{"OBJECT_NAME":"STARLINK-33776","OBJECT_ID":"2025-093R","EPOCH":"2025-08-05T01:25:11.284032","MEAN_MOTION":15.27590335,"ECCENTRICITY":9.19e-5,"INCLINATION":42.9987,"RA_OF_ASC_NODE":221.1148,"ARG_OF_PERICENTER":259.6762,"MEAN_ANOMALY":100.3986,"EPHEMERIS_TYPE":0,"CLASSIFICATION_TYPE":"U","NORAD_CAT_ID":63851,"ELEMENT_SET_NO":999,"REV_AT_EPOCH":1483,"BSTAR":0.00059967,"MEAN_MOTION_DOT":0.00016281,"MEAN_MOTION_DDOT":0},{"OBJECT_NAME":"STARLINK-34032","OBJECT_ID":"2025-093T","EPOCH":"2025-08-05T01:28:53.008032","MEAN_MOTION":15.27577838,"ECCENTRICITY":9.27e-5,"INCLINATION":42.9986,"RA_OF_ASC_NODE":221.1159,"ARG_OF_PERICENTER":250.2843,"MEAN_ANOMALY":109.7909,"EPHEMERIS_TYPE":0,"CLASSIFICATION_TYPE":"U","NORAD_CAT_ID":63853,"ELEMENT_SET_NO":999,"REV_AT_EPOCH":1484,"BSTAR":0.00065711,"MEAN_MOTION_DOT":0.00017863,"MEAN_MOTION_DDOT":0},{"OBJECT_NAME":"STARLINK-34015","OBJECT_ID":"2025-093U","EPOCH":"2025-08-05T08:41:01.376736","MEAN_MOTION":15.27608853,"ECCENTRICITY":0.0001259,"INCLINATION":42.9976,"RA_OF_ASC_NODE":219.9292,"ARG_OF_PERICENTER":270.053,"MEAN_ANOMALY":90.0177,"EPHEMERIS_TYPE":0,"CLASSIFICATION_TYPE":"U","NORAD_CAT_ID":63854,"ELEMENT_SET_NO":999,"REV_AT_EPOCH":1472,"BSTAR":0.00095134,"MEAN_MOTION_DOT":0.00026032,"MEAN_MOTION_DDOT":0},{"OBJECT_NAME":"STARLINK-33969","OBJECT_ID":"2025-093V","EPOCH":"2025-08-05T11:04:55.524864","MEAN_MOTION":15.27605658,"ECCENTRICITY":5.86e-5,"INCLINATION":42.9988,"RA_OF_ASC_NODE":218.9565,"ARG_OF_PERICENTER":262.4134,"MEAN_ANOMALY":97.6651,"EPHEMERIS_TYPE":0,"CLASSIFICATION_TYPE":"U","NORAD_CAT_ID":63855,"ELEMENT_SET_NO":999,"REV_AT_EPOCH":1467,"BSTAR":0.00073516,"MEAN_MOTION_DOT":0.00020039,"MEAN_MOTION_DDOT":0},{"OBJECT_NAME":"STARLINK-34002","OBJECT_ID":"2025-093W","EPOCH":"2025-08-05T06:35:24.750528","MEAN_MOTION":15.27586272,"ECCENTRICITY":0.0002704,"INCLINATION":43.0018,"RA_OF_ASC_NODE":220.1335,"ARG_OF_PERICENTER":285.3693,"MEAN_ANOMALY":74.686,"EPHEMERIS_TYPE":0,"CLASSIFICATION_TYPE":"U","NORAD_CAT_ID":63856,"ELEMENT_SET_NO":999,"REV_AT_EPOCH":1465,"BSTAR":0.00077036,"MEAN_MOTION_DOT":0.00021002,"MEAN_MOTION_DDOT":0}]
